UNKNOWN                 
1 87764U          26012.91952034  .00003645  00000+0  62844-3 0  9990
2 87764  65.6732  76.6041 0359204  60.2932 114.2894 14.35262261623598
UNKNOWN                 
1 87771U          26012.77592822  .00000065  00000+0  27320-3 0  9990
2 87771 100.7425 214.6152 0119602 292.0740  66.7709 13.19526705539185
UNKNOWN                 
1 87782U          26013.38348076  .00002155  00000+0  72643-2 0  9999
2 87782 102.3495 254.1644 0028961 170.7795 189.3839 13.00574919572101
UNKNOWN                 
1 87843U          25365.53354477  .00003159  00000+0  72595-2 0  9996
2 87843  99.6614 118.0995 0234665 319.2694  39.1080 13.16629848566635
UNKNOWN                 
1 87845U          26011.33924589  .00000994  00000+0  19109-2 0  9998
2 87845  98.8606 328.0344 0575795 185.4465 174.0190 12.88988178569020
UNKNOWN                 
1 87878U          26011.08116486  .00003759  00000+0  11752-2 0  9993
2 87878  99.1571 137.6350 0036257 179.5957 180.5265 14.40996589615524
UNKNOWN                 
1 87884U          26011.03697219  .00000113  00000+0  85299-4 0  9993
2 87884  98.7337 118.8562 0153540 346.2156  13.4843 14.06004722622481
UNKNOWN                 
1 87991U          26006.69342234  .00002603  00000+0  51580-2 0  9992
2 87991  28.6304 155.2866 0885792 209.1286 145.6890 12.35225332526081
UNKNOWN                 
1 87998U          25361.29196756  .00001008  00000+0  57494-3 0  9993
2 87998  98.5977   6.3824 0026225 201.8740 158.1315 14.11712008550953
UNKNOWN                 
1 89005U          26011.98979029  .00003019  00000+0  69173-3 0  9996
2 89005  97.8389 203.8673 0190380 298.6896  59.5276 14.45744525538467
UNKNOWN                 
1 89029U          26002.99274746  .00010804  00000+0  99585-3 0  9997
2 89029  98.0492 267.7797 0020968 254.3075 105.5831 14.94708669654257
UNKNOWN                 
1 89101U          26004.03920154  .00000437  00000+0  14266-2 0  9999
2 89101 100.4669 305.0357 0147820  58.1774 303.3629 13.04020863557756
