CCSDS_OMM_VERS = 2.0
CREATION_DATE  = 
ORIGINATOR     = 

OBJECT_NAME    = UNKNOWN
OBJECT_ID      = 
CENTER_NAME    = EARTH
REF_FRAME      = TEME
TIME_SYSTEM    = UTC
MEAN_ELEMENT_THEORY = SGP/SGP4

EPOCH          = 2026-01-12T22:04:06.557376
MEAN_MOTION    = 14.35262261
ECCENTRICITY   = .0359204
INCLINATION    = 65.6732
RA_OF_ASC_NODE = 76.6041
ARG_OF_PERICENTER = 60.2932
MEAN_ANOMALY   = 114.2894

EPHEMERIS_TYPE = 0
CLASSIFICATION_TYPE = U
NORAD_CAT_ID   = 87764
ELEMENT_SET_NO = 999
REV_AT_EPOCH   = 62359
BSTAR          = .62844E-3
MEAN_MOTION_DOT = .3645E-4
MEAN_MOTION_DDOT = 0

CCSDS_OMM_VERS = 2.0
CREATION_DATE  = 
ORIGINATOR     = 

OBJECT_NAME    = UNKNOWN
OBJECT_ID      = 
CENTER_NAME    = EARTH
REF_FRAME      = TEME
TIME_SYSTEM    = UTC
MEAN_ELEMENT_THEORY = SGP/SGP4

EPOCH          = 2026-01-12T18:37:20.198208
MEAN_MOTION    = 13.19526705
ECCENTRICITY   = .0119602
INCLINATION    = 100.7425
RA_OF_ASC_NODE = 214.6152
ARG_OF_PERICENTER = 292.0740
MEAN_ANOMALY   = 66.7709

EPHEMERIS_TYPE = 0
CLASSIFICATION_TYPE = U
NORAD_CAT_ID   = 87771
ELEMENT_SET_NO = 999
REV_AT_EPOCH   = 53918
BSTAR          = .2732E-3
MEAN_MOTION_DOT = .65E-6
MEAN_MOTION_DDOT = 0

CCSDS_OMM_VERS = 2.0
CREATION_DATE  = 
ORIGINATOR     = 

OBJECT_NAME    = UNKNOWN
OBJECT_ID      = 
CENTER_NAME    = EARTH
REF_FRAME      = TEME
TIME_SYSTEM    = UTC
MEAN_ELEMENT_THEORY = SGP/SGP4

EPOCH          = 2026-01-13T09:12:12.737664
MEAN_MOTION    = 13.00574919
ECCENTRICITY   = .0028961
INCLINATION    = 102.3495
RA_OF_ASC_NODE = 254.1644
ARG_OF_PERICENTER = 170.7795
MEAN_ANOMALY   = 189.3839

EPHEMERIS_TYPE = 0
CLASSIFICATION_TYPE = U
NORAD_CAT_ID   = 87782
ELEMENT_SET_NO = 999
REV_AT_EPOCH   = 57210
BSTAR          = .72643E-2
MEAN_MOTION_DOT = .2155E-4
MEAN_MOTION_DDOT = 0

CCSDS_OMM_VERS = 2.0
CREATION_DATE  = 
ORIGINATOR     = 

OBJECT_NAME    = UNKNOWN
OBJECT_ID      = 
CENTER_NAME    = EARTH
REF_FRAME      = TEME
TIME_SYSTEM    = UTC
MEAN_ELEMENT_THEORY = SGP/SGP4

EPOCH          = 2025-12-31T12:48:18.268128
MEAN_MOTION    = 13.16629848
ECCENTRICITY   = .0234665
INCLINATION    = 99.6614
RA_OF_ASC_NODE = 118.0995
ARG_OF_PERICENTER = 319.2694
MEAN_ANOMALY   = 39.1080

EPHEMERIS_TYPE = 0
CLASSIFICATION_TYPE = U
NORAD_CAT_ID   = 87843
ELEMENT_SET_NO = 999
REV_AT_EPOCH   = 56663
BSTAR          = .72595E-2
MEAN_MOTION_DOT = .3159E-4
MEAN_MOTION_DDOT = 0

CCSDS_OMM_VERS = 2.0
CREATION_DATE  = 
ORIGINATOR     = 

OBJECT_NAME    = UNKNOWN
OBJECT_ID      = 
CENTER_NAME    = EARTH
REF_FRAME      = TEME
TIME_SYSTEM    = UTC
MEAN_ELEMENT_THEORY = SGP/SGP4

EPOCH          = 2026-01-11T08:08:30.844896
MEAN_MOTION    = 12.88988178
ECCENTRICITY   = .0575795
INCLINATION    = 98.8606
RA_OF_ASC_NODE = 328.0344
ARG_OF_PERICENTER = 185.4465
MEAN_ANOMALY   = 174.0190

EPHEMERIS_TYPE = 0
CLASSIFICATION_TYPE = U
NORAD_CAT_ID   = 87845
ELEMENT_SET_NO = 999
REV_AT_EPOCH   = 56902
BSTAR          = .19109E-2
MEAN_MOTION_DOT = .994E-5
MEAN_MOTION_DDOT = 0

CCSDS_OMM_VERS = 2.0
CREATION_DATE  = 
ORIGINATOR     = 

OBJECT_NAME    = UNKNOWN
OBJECT_ID      = 
CENTER_NAME    = EARTH
REF_FRAME      = TEME
TIME_SYSTEM    = UTC
MEAN_ELEMENT_THEORY = SGP/SGP4

EPOCH          = 2026-01-11T01:56:52.643904
MEAN_MOTION    = 14.40996589
ECCENTRICITY   = .0036257
INCLINATION    = 99.1571
RA_OF_ASC_NODE = 137.6350
ARG_OF_PERICENTER = 179.5957
MEAN_ANOMALY   = 180.5265

EPHEMERIS_TYPE = 0
CLASSIFICATION_TYPE = U
NORAD_CAT_ID   = 87878
ELEMENT_SET_NO = 999
REV_AT_EPOCH   = 61552
BSTAR          = .11752E-2
MEAN_MOTION_DOT = .3759E-4
MEAN_MOTION_DDOT = 0

CCSDS_OMM_VERS = 2.0
CREATION_DATE  = 
ORIGINATOR     = 

OBJECT_NAME    = UNKNOWN
OBJECT_ID      = 
CENTER_NAME    = EARTH
REF_FRAME      = TEME
TIME_SYSTEM    = UTC
MEAN_ELEMENT_THEORY = SGP/SGP4

EPOCH          = 2026-01-11T00:53:14.397216
MEAN_MOTION    = 14.06004722
ECCENTRICITY   = .015354
INCLINATION    = 98.7337
RA_OF_ASC_NODE = 118.8562
ARG_OF_PERICENTER = 346.2156
MEAN_ANOMALY   = 13.4843

EPHEMERIS_TYPE = 0
CLASSIFICATION_TYPE = U
NORAD_CAT_ID   = 87884
ELEMENT_SET_NO = 999
REV_AT_EPOCH   = 62248
BSTAR          = .85299E-4
MEAN_MOTION_DOT = .113E-5
MEAN_MOTION_DDOT = 0

CCSDS_OMM_VERS = 2.0
CREATION_DATE  = 
ORIGINATOR     = 

OBJECT_NAME    = UNKNOWN
OBJECT_ID      = 
CENTER_NAME    = EARTH
REF_FRAME      = TEME
TIME_SYSTEM    = UTC
MEAN_ELEMENT_THEORY = SGP/SGP4

EPOCH          = 2026-01-06T16:38:31.690176
MEAN_MOTION    = 12.35225332
ECCENTRICITY   = .0885792
INCLINATION    = 28.6304
RA_OF_ASC_NODE = 155.2866
ARG_OF_PERICENTER = 209.1286
MEAN_ANOMALY   = 145.6890

EPHEMERIS_TYPE = 0
CLASSIFICATION_TYPE = U
NORAD_CAT_ID   = 87991
ELEMENT_SET_NO = 999
REV_AT_EPOCH   = 52608
BSTAR          = .5158E-2
MEAN_MOTION_DOT = .2603E-4
MEAN_MOTION_DDOT = 0

CCSDS_OMM_VERS = 2.0
CREATION_DATE  = 
ORIGINATOR     = 

OBJECT_NAME    = UNKNOWN
OBJECT_ID      = 
CENTER_NAME    = EARTH
REF_FRAME      = TEME
TIME_SYSTEM    = UTC
MEAN_ELEMENT_THEORY = SGP/SGP4

EPOCH          = 2025-12-27T07:00:25.997184
MEAN_MOTION    = 14.11712008
ECCENTRICITY   = .0026225
INCLINATION    = 98.5977
RA_OF_ASC_NODE = 6.3824
ARG_OF_PERICENTER = 201.8740
MEAN_ANOMALY   = 158.1315

EPHEMERIS_TYPE = 0
CLASSIFICATION_TYPE = U
NORAD_CAT_ID   = 87998
ELEMENT_SET_NO = 999
REV_AT_EPOCH   = 55095
BSTAR          = .57494E-3
MEAN_MOTION_DOT = .1008E-4
MEAN_MOTION_DDOT = 0

CCSDS_OMM_VERS = 2.0
CREATION_DATE  = 
ORIGINATOR     = 

OBJECT_NAME    = UNKNOWN
OBJECT_ID      = 
CENTER_NAME    = EARTH
REF_FRAME      = TEME
TIME_SYSTEM    = UTC
MEAN_ELEMENT_THEORY = SGP/SGP4

EPOCH          = 2026-01-11T23:45:17.881056
MEAN_MOTION    = 14.45744525
ECCENTRICITY   = .019038
INCLINATION    = 97.8389
RA_OF_ASC_NODE = 203.8673
ARG_OF_PERICENTER = 298.6896
MEAN_ANOMALY   = 59.5276

EPHEMERIS_TYPE = 0
CLASSIFICATION_TYPE = U
NORAD_CAT_ID   = 89005
ELEMENT_SET_NO = 999
REV_AT_EPOCH   = 53846
BSTAR          = .69173E-3
MEAN_MOTION_DOT = .3019E-4
MEAN_MOTION_DDOT = 0

CCSDS_OMM_VERS = 2.0
CREATION_DATE  = 
ORIGINATOR     = 

OBJECT_NAME    = UNKNOWN
OBJECT_ID      = 
CENTER_NAME    = EARTH
REF_FRAME      = TEME
TIME_SYSTEM    = UTC
MEAN_ELEMENT_THEORY = SGP/SGP4

EPOCH          = 2026-01-02T23:49:33.380544
MEAN_MOTION    = 14.94708669
ECCENTRICITY   = .0020968
INCLINATION    = 98.0492
RA_OF_ASC_NODE = 267.7797
ARG_OF_PERICENTER = 254.3075
MEAN_ANOMALY   = 105.5831

EPHEMERIS_TYPE = 0
CLASSIFICATION_TYPE = U
NORAD_CAT_ID   = 89029
ELEMENT_SET_NO = 999
REV_AT_EPOCH   = 65425
BSTAR          = .99585E-3
MEAN_MOTION_DOT = .10804E-3
MEAN_MOTION_DDOT = 0

CCSDS_OMM_VERS = 2.0
CREATION_DATE  = 
ORIGINATOR     = 

OBJECT_NAME    = UNKNOWN
OBJECT_ID      = 
CENTER_NAME    = EARTH
REF_FRAME      = TEME
TIME_SYSTEM    = UTC
MEAN_ELEMENT_THEORY = SGP/SGP4

EPOCH          = 2026-01-04T00:56:27.013056
MEAN_MOTION    = 13.04020863
ECCENTRICITY   = .014782
INCLINATION    = 100.4669
RA_OF_ASC_NODE = 305.0357
ARG_OF_PERICENTER = 58.1774
MEAN_ANOMALY   = 303.3629

EPHEMERIS_TYPE = 0
CLASSIFICATION_TYPE = U
NORAD_CAT_ID   = 89101
ELEMENT_SET_NO = 999
REV_AT_EPOCH   = 55775
BSTAR          = .14266E-2
MEAN_MOTION_DOT = .437E-5
MEAN_MOTION_DDOT = 0

